<?xml version="1.0" encoding="UTF-8"?>
<kml xmlns="http://www.opengis.net/kml/2.2" xmlns:gx="http://www.google.com/kml/ext/2.2">
    <Document id="1">
        <Placemark id="3">
            <Style id="6">
                <LineStyle id="7">
                    <color>ff0000FF</color>
                    <colorMode>normal</colorMode>
                    <width>1</width>
                </LineStyle>
            </Style>
            <name>Jalur argoklono</name>
            <description>Description:</description>
            <MultiGeometry id="2">
                <LineString id="4">
                    <extrude>0</extrude>
                    <altitudeMode>clampToGround</altitudeMode>
                    <coordinates>111.814327,-7.76478,991.9 111.814273,-7.765246,1005.6 111.814358,-7.76559,1009.9 111.814538,-7.766018,1012.0 111.814638,-7.766293,1010.8 111.814749,-7.767074,1023.4 111.814818,-7.767254,1029.1 111.814702,-7.768009,1041.7 111.814479,-7.768318,1048.5 111.814274,-7.768565,1051.4 111.814098,-7.769072,1052.3 111.813723,-7.769407,1058.3 111.813496,-7.769752,1070.8 111.813208,-7.770311,1070.2 111.812996,-7.770554,1079.6 111.812634,-7.770566,1096.8 111.812219,-7.770382,1108.2 111.811867,-7.770095,1106.3 111.811754,-7.77003,1108.4 111.811639,-7.770011,1112.1 111.811377,-7.770085,1120.1 111.811256,-7.770105,1123.7 111.811146,-7.770096,1126.1 111.810837,-7.77031,1138.2 111.810636,-7.770488,1141.7 111.810464,-7.770588,1139.7 111.810243,-7.770869,1138.5 111.810158,-7.771043,1145.5 111.810144,-7.771332,1161.9 111.81011,-7.771449,1166.3 111.80997,-7.771593,1166.4 111.809969,-7.771874,1174.5 111.81007,-7.77219,1178.9 111.810167,-7.772429,1180.0 111.810047,-7.772756,1186.8 111.809934,-7.772868,1189.9 111.809978,-7.772918,1192.6 111.810157,-7.772891,1189.5 111.810192,-7.77295,1190.7 111.810149,-7.773052,1195.2 111.810086,-7.773454,1205.3 111.80996,-7.773829,1210.6 111.809848,-7.773963,1210.8 111.809786,-7.774004,1211.4 111.809623,-7.774364,1226.2 111.809606,-7.774581,1230.9 111.809485,-7.774939,1236.5 111.80943,-7.775084,1235.1 111.809325,-7.775214,1236.4 111.809343,-7.775309,1235.6 111.809251,-7.775444,1239.5 111.809231,-7.77569,1251.0 111.80908,-7.775776,1259.9 111.809019,-7.775767,1261.5 111.808967,-7.775774,1263.5 111.808818,-7.77594,1271.0 111.808653,-7.775983,1274.8 111.808386,-7.776198,1276.5 111.808228,-7.776223,1277.3 111.808215,-7.776247,1278.7 111.808215,-7.776331,1286.1 111.808064,-7.776423,1296.1 111.807902,-7.776574,1314.8 111.807881,-7.776631,1318.3 111.807814,-7.776695,1323.8 111.807655,-7.776976,1337.9 111.807597,-7.777037,1341.3 111.80751,-7.777071,1345.4 111.807388,-7.77722,1345.9 111.807152,-7.777416,1343.9 111.80695,-7.777625,1342.9 111.806875,-7.777762,1344.9 111.806769,-7.778037,1347.7 111.806643,-7.778329,1348.3 111.806609,-7.778421,1347.0 111.806447,-7.778638,1354.2 111.80629,-7.778957,1372.0 111.80628,-7.779331,1394.9 111.806238,-7.779698,1401.9 111.806144,-7.78012,1411.7 111.806095,-7.780435,1414.9 111.805857,-7.780592,1416.9 111.805717,-7.780836,1422.7 111.805704,-7.781195,1437.3 111.805786,-7.781499,1452.1 111.80581,-7.78173,1458.6 111.805679,-7.78216,1469.3 111.805604,-7.782687,1486.2 111.805306,-7.783047,1487.8 111.805173,-7.783707,1497.1 111.804985,-7.784366,1503.2 111.804783,-7.784814,1500.3 111.804693,-7.785449,1539.2 111.804666,-7.785799,1556.1 111.804639,-7.786271,1593.5 111.804583,-7.786669,1615.6 111.804561,-7.786955,1633.7 111.804604,-7.787499,1664.9 111.804823,-7.787554,1666.2 111.80488,-7.787597,1667.2 111.804817,-7.787595,1668.6 111.804747,-7.787652,1673.0 111.804707,-7.787711,1676.1 111.804677,-7.787781,1678.9 111.804672,-7.787854,1682.3 111.804683,-7.788211,1690.9 111.80469,-7.788546,1699.6 111.80479,-7.788742,1701.2 111.804785,-7.788941,1715.9 111.804712,-7.78921,1731.3 111.804709,-7.789054,1726.9 111.804627,-7.789002,1725.2 111.804618,-7.789108,1729.3 111.804474,-7.789269,1732.6 111.804402,-7.789472,1734.1 111.804436,-7.789568,1735.6 111.804449,-7.789624,1736.6 111.804472,-7.78969,1738.1 111.804503,-7.789776,1740.4 111.80451,-7.789796,1741.0 111.804513,-7.7898,1741.2 111.804514,-7.789804,1741.3 111.804509,-7.789797,1741.0 111.80451,-7.789797,1741.0 111.804511,-7.789798,1741.1 111.804514,-7.789799,1741.2 111.804515,-7.789804,1741.4 111.804511,-7.789797,1741.1 111.804511,-7.789797,1741.1 111.804512,-7.789802,1741.2</coordinates>
                </LineString>
            </MultiGeometry>
        </Placemark>
    </Document>
</kml>
