<?xml version="1.0" encoding="UTF-8"?>
<gpx creator="StravaGPX" version="1.1" xmlns="http://www.topografix.com/GPX/1/1" xmlns:xsi="http://www.w3.org/2001/XMLSchema-instance" xsi:schemaLocation="http://www.topografix.com/GPX/1/1 http://www.topografix.com/GPX/1/1/gpx.xsd">
 <metadata>
  <name>Jontani</name>
  <author>
   <name>Surya Wisnugraha</name>
   <link href="https://www.strava.com/athletes/130816333"/>
  </author>
  <copyright author="OpenStreetMap contributors">
   <year>2020</year>
   <license>https://www.openstreetmap.org/copyright</license>
  </copyright>
  <link href="https://www.strava.com/routes/3512002910967343156"/>
 </metadata>
 <trk>
  <name>Jontani</name>
  <link href="https://www.strava.com/routes/3512002910967343156"/>
  <type>hiking</type>
  <trkseg>
   <trkpt lat="-7.748480000000001" lon="111.77776000000001">
    <ele>759.09</ele>
   </trkpt>
   <trkpt lat="-7.748965000129037" lon="111.77813999953152">
    <ele>759.09</ele>
   </trkpt>
   <trkpt lat="-7.74945" lon="111.77852000000001">
    <ele>759.09</ele>
   </trkpt>
   <trkpt lat="-7.7498000000000005" lon="111.77852000000001">
    <ele>797.0</ele>
   </trkpt>
   <trkpt lat="-7.7499" lon="111.77856000000001">
    <ele>797.0</ele>
   </trkpt>
   <trkpt lat="-7.74999" lon="111.77879000000001">
    <ele>797.0</ele>
   </trkpt>
   <trkpt lat="-7.75011" lon="111.77884">
    <ele>797.0</ele>
   </trkpt>
   <trkpt lat="-7.7502200000000006" lon="111.77886000000001">
    <ele>797.0</ele>
   </trkpt>
   <trkpt lat="-7.7508449999619" lon="111.77891499991469">
    <ele>797.34</ele>
   </trkpt>
   <trkpt lat="-7.75147" lon="111.77897000000002">
    <ele>804.4100000000001</ele>
   </trkpt>
   <trkpt lat="-7.75201" lon="111.77948">
    <ele>809.27</ele>
   </trkpt>
   <trkpt lat="-7.7523800000000005" lon="111.77967000000001">
    <ele>812.9000000000001</ele>
   </trkpt>
   <trkpt lat="-7.7529" lon="111.77938">
    <ele>821.58</ele>
   </trkpt>
   <trkpt lat="-7.753360000128391" lon="111.77932000004938">
    <ele>830.2400000000001</ele>
   </trkpt>
   <trkpt lat="-7.753820000000001" lon="111.77926000000001">
    <ele>840.0000000000001</ele>
   </trkpt>
   <trkpt lat="-7.75427500031087" lon="111.77883500036606">
    <ele>852.7900000000001</ele>
   </trkpt>
   <trkpt lat="-7.75473" lon="111.77841000000001">
    <ele>868.33</ele>
   </trkpt>
   <trkpt lat="-7.75492" lon="111.77838000000001">
    <ele>868.33</ele>
   </trkpt>
   <trkpt lat="-7.75532" lon="111.77849">
    <ele>877.7800000000001</ele>
   </trkpt>
   <trkpt lat="-7.75569" lon="111.77854">
    <ele>885.51</ele>
   </trkpt>
   <trkpt lat="-7.75654" lon="111.77857000000002">
    <ele>900.6800000000001</ele>
   </trkpt>
   <trkpt lat="-7.7569300000000005" lon="111.77870000000001">
    <ele>911.1600000000001</ele>
   </trkpt>
   <trkpt lat="-7.7574700000000005" lon="111.77869000000001">
    <ele>921.5300000000001</ele>
   </trkpt>
   <trkpt lat="-7.75783" lon="111.77851000000001">
    <ele>930.66</ele>
   </trkpt>
   <trkpt lat="-7.75811" lon="111.77857000000002">
    <ele>934.7400000000001</ele>
   </trkpt>
   <trkpt lat="-7.7583" lon="111.77856000000001">
    <ele>936.6800000000001</ele>
   </trkpt>
   <trkpt lat="-7.75867" lon="111.77820000000001">
    <ele>943.7900000000001</ele>
   </trkpt>
   <trkpt lat="-7.759220000031414" lon="111.77807500016051">
    <ele>948.52</ele>
   </trkpt>
   <trkpt lat="-7.7597700000000005" lon="111.77795">
    <ele>959.83</ele>
   </trkpt>
   <trkpt lat="-7.760309999983418" lon="111.7777950002119">
    <ele>968.37</ele>
   </trkpt>
   <trkpt lat="-7.7608500000000005" lon="111.77764">
    <ele>976.58</ele>
   </trkpt>
   <trkpt lat="-7.76132" lon="111.77737">
    <ele>984.57</ele>
   </trkpt>
   <trkpt lat="-7.761710000000001" lon="111.77731000000001">
    <ele>990.0000000000001</ele>
   </trkpt>
   <trkpt lat="-7.762160000215164" lon="111.77721500005852">
    <ele>999.6300000000001</ele>
   </trkpt>
   <trkpt lat="-7.7626100000000005" lon="111.77712000000001">
    <ele>1003.6100000000001</ele>
   </trkpt>
   <trkpt lat="-7.7629600000000005" lon="111.77693000000001">
    <ele>1006.35</ele>
   </trkpt>
   <trkpt lat="-7.7634300000000005" lon="111.77691000000002">
    <ele>1013.42</ele>
   </trkpt>
   <trkpt lat="-7.763780000000001" lon="111.77696">
    <ele>1017.29</ele>
   </trkpt>
   <trkpt lat="-7.764244999919286" lon="111.77709999981391">
    <ele>1025.29</ele>
   </trkpt>
   <trkpt lat="-7.764710000000001" lon="111.77724">
    <ele>1028.78</ele>
   </trkpt>
   <trkpt lat="-7.76496" lon="111.77743000000001">
    <ele>1031.2100000000003</ele>
   </trkpt>
   <trkpt lat="-7.76517" lon="111.77776000000001">
    <ele>1036.74</ele>
   </trkpt>
   <trkpt lat="-7.7657300000000005" lon="111.77834000000001">
    <ele>1050.74</ele>
   </trkpt>
   <trkpt lat="-7.76569" lon="111.77846000000001">
    <ele>1051.93</ele>
   </trkpt>
   <trkpt lat="-7.76578" lon="111.77891000000001">
    <ele>1055.11</ele>
   </trkpt>
   <trkpt lat="-7.76604" lon="111.77957">
    <ele>1069.3700000000001</ele>
   </trkpt>
   <trkpt lat="-7.76665" lon="111.78020000000001">
    <ele>1088.94</ele>
   </trkpt>
   <trkpt lat="-7.7669500000000005" lon="111.7805">
    <ele>1094.4900000000002</ele>
   </trkpt>
   <trkpt lat="-7.767" lon="111.78032">
    <ele>1097.5900000000001</ele>
   </trkpt>
   <trkpt lat="-7.76733" lon="111.78040000000001">
    <ele>1108.5900000000001</ele>
   </trkpt>
   <trkpt lat="-7.76787" lon="111.78089000000001">
    <ele>1123.4</ele>
   </trkpt>
   <trkpt lat="-7.768350000000001" lon="111.78108">
    <ele>1131.0</ele>
   </trkpt>
   <trkpt lat="-7.7688500000000005" lon="111.78126">
    <ele>1138.8</ele>
   </trkpt>
   <trkpt lat="-7.769340000000001" lon="111.78179000000002">
    <ele>1153.39</ele>
   </trkpt>
   <trkpt lat="-7.7700000000000005" lon="111.78206000000002">
    <ele>1166.0700000000002</ele>
   </trkpt>
   <trkpt lat="-7.77024" lon="111.78205000000001">
    <ele>1171.06</ele>
   </trkpt>
   <trkpt lat="-7.77031" lon="111.78214000000001">
    <ele>1172.2700000000002</ele>
   </trkpt>
   <trkpt lat="-7.77031" lon="111.78213000000001">
    <ele>1172.2700000000002</ele>
   </trkpt>
   <trkpt lat="-7.77026" lon="111.7823">
    <ele>1174.0700000000002</ele>
   </trkpt>
   <trkpt lat="-7.77003" lon="111.7826">
    <ele>1178.77</ele>
   </trkpt>
   <trkpt lat="-7.76949000015903" lon="111.78281500023468">
    <ele>1188.0300000000002</ele>
   </trkpt>
   <trkpt lat="-7.76895" lon="111.78303000000001">
    <ele>1195.9</ele>
   </trkpt>
   <trkpt lat="-7.76883" lon="111.78313000000001">
    <ele>1197.6</ele>
   </trkpt>
   <trkpt lat="-7.7689200000000005" lon="111.78326000000001">
    <ele>1199.95</ele>
   </trkpt>
   <trkpt lat="-7.768910000000001" lon="111.78326000000001">
    <ele>1199.95</ele>
   </trkpt>
   <trkpt lat="-7.769725000139191" lon="111.78346999961502">
    <ele>1213.53</ele>
   </trkpt>
   <trkpt lat="-7.7705400000000004" lon="111.78368">
    <ele>1229.0100000000002</ele>
   </trkpt>
   <trkpt lat="-7.7709600000000005" lon="111.7835">
    <ele>1239.95</ele>
   </trkpt>
   <trkpt lat="-7.7709600000000005" lon="111.78392000000001">
    <ele>1247.43</ele>
   </trkpt>
   <trkpt lat="-7.77099" lon="111.78405000000001">
    <ele>1249.0700000000002</ele>
   </trkpt>
   <trkpt lat="-7.77113" lon="111.78415000000001">
    <ele>1252.7100000000003</ele>
   </trkpt>
   <trkpt lat="-7.77125" lon="111.78416000000001">
    <ele>1256.07</ele>
   </trkpt>
   <trkpt lat="-7.77127" lon="111.78409">
    <ele>1256.95</ele>
   </trkpt>
   <trkpt lat="-7.7712200000000005" lon="111.78397000000001">
    <ele>1258.96</ele>
   </trkpt>
   <trkpt lat="-7.77125" lon="111.78391">
    <ele>1258.96</ele>
   </trkpt>
   <trkpt lat="-7.77134" lon="111.78388000000001">
    <ele>1263.5100000000002</ele>
   </trkpt>
   <trkpt lat="-7.77188" lon="111.78396000000001">
    <ele>1276.3000000000002</ele>
   </trkpt>
   <trkpt lat="-7.77256" lon="111.78401000000001">
    <ele>1292.0</ele>
   </trkpt>
   <trkpt lat="-7.77282" lon="111.78397000000001">
    <ele>1296.74</ele>
   </trkpt>
   <trkpt lat="-7.77357" lon="111.78409">
    <ele>1316.2900000000002</ele>
   </trkpt>
   <trkpt lat="-7.77385" lon="111.78394000000002">
    <ele>1323.42</ele>
   </trkpt>
   <trkpt lat="-7.7739" lon="111.78373">
    <ele>1329.26</ele>
   </trkpt>
   <trkpt lat="-7.77397" lon="111.78373">
    <ele>1329.26</ele>
   </trkpt>
   <trkpt lat="-7.7740100000000005" lon="111.78392000000001">
    <ele>1333.13</ele>
   </trkpt>
   <trkpt lat="-7.77411" lon="111.78402000000001">
    <ele>1337.46</ele>
   </trkpt>
   <trkpt lat="-7.77418" lon="111.78404">
    <ele>1339.47</ele>
   </trkpt>
   <trkpt lat="-7.7742700000000005" lon="111.78403000000002">
    <ele>1341.39</ele>
   </trkpt>
   <trkpt lat="-7.77467" lon="111.78405000000001">
    <ele>1347.43</ele>
   </trkpt>
   <trkpt lat="-7.77505" lon="111.78416000000001">
    <ele>1349.5600000000002</ele>
   </trkpt>
   <trkpt lat="-7.77521" lon="111.78414000000001">
    <ele>1349.7800000000002</ele>
   </trkpt>
   <trkpt lat="-7.7755600000000005" lon="111.78386">
    <ele>1353.26</ele>
   </trkpt>
   <trkpt lat="-7.77575" lon="111.78386">
    <ele>1353.5000000000002</ele>
   </trkpt>
   <trkpt lat="-7.77622" lon="111.78407000000001">
    <ele>1357.6200000000001</ele>
   </trkpt>
   <trkpt lat="-7.7763800000000005" lon="111.78423000000001">
    <ele>1359.7800000000002</ele>
   </trkpt>
   <trkpt lat="-7.77657" lon="111.78426">
    <ele>1361.7</ele>
   </trkpt>
   <trkpt lat="-7.7769900000000005" lon="111.78421000000002">
    <ele>1366.66</ele>
   </trkpt>
   <trkpt lat="-7.77718" lon="111.78426">
    <ele>1369.92</ele>
   </trkpt>
   <trkpt lat="-7.7773900000000005" lon="111.78424000000001">
    <ele>1374.19</ele>
   </trkpt>
   <trkpt lat="-7.77756" lon="111.78429000000001">
    <ele>1377.52</ele>
   </trkpt>
   <trkpt lat="-7.77779" lon="111.78452000000001">
    <ele>1380.47</ele>
   </trkpt>
   <trkpt lat="-7.77791" lon="111.78457">
    <ele>1381.18</ele>
   </trkpt>
   <trkpt lat="-7.7785400000000005" lon="111.78463">
    <ele>1385.0800000000002</ele>
   </trkpt>
   <trkpt lat="-7.778560000000001" lon="111.78464000000001">
    <ele>1385.0800000000002</ele>
   </trkpt>
   <trkpt lat="-7.778550000000001" lon="111.78463">
    <ele>1385.0800000000002</ele>
   </trkpt>
   <trkpt lat="-7.77878" lon="111.78485">
    <ele>1388.9600000000003</ele>
   </trkpt>
   <trkpt lat="-7.77899" lon="111.78494">
    <ele>1390.7200000000003</ele>
   </trkpt>
   <trkpt lat="-7.77934" lon="111.78512">
    <ele>1395.0600000000002</ele>
   </trkpt>
   <trkpt lat="-7.7796" lon="111.78543">
    <ele>1401.71</ele>
   </trkpt>
   <trkpt lat="-7.77967" lon="111.78565">
    <ele>1403.8700000000001</ele>
   </trkpt>
   <trkpt lat="-7.779700000000001" lon="111.78594000000001">
    <ele>1407.0</ele>
   </trkpt>
   <trkpt lat="-7.77967" lon="111.78609000000002">
    <ele>1407.0</ele>
   </trkpt>
   <trkpt lat="-7.7796" lon="111.78625000000001">
    <ele>1407.0</ele>
   </trkpt>
   <trkpt lat="-7.77953" lon="111.78632">
    <ele>1407.0</ele>
   </trkpt>
   <trkpt lat="-7.77948" lon="111.78644000000001">
    <ele>1407.0</ele>
   </trkpt>
   <trkpt lat="-7.77948" lon="111.78651">
    <ele>1407.0</ele>
   </trkpt>
   <trkpt lat="-7.77974" lon="111.78685000000002">
    <ele>1407.0</ele>
   </trkpt>
   <trkpt lat="-7.7799700000000005" lon="111.78680000000001">
    <ele>1407.0</ele>
   </trkpt>
   <trkpt lat="-7.7802500000000006" lon="111.78721000000002">
    <ele>1407.0</ele>
   </trkpt>
   <trkpt lat="-7.78061" lon="111.78736">
    <ele>1407.0</ele>
   </trkpt>
   <trkpt lat="-7.7809800000000005" lon="111.78760000000001">
    <ele>1407.0</ele>
   </trkpt>
   <trkpt lat="-7.7812600000000005" lon="111.78800000000001">
    <ele>1407.0</ele>
   </trkpt>
   <trkpt lat="-7.7814700000000006" lon="111.78821">
    <ele>1407.0</ele>
   </trkpt>
   <trkpt lat="-7.78162" lon="111.78823000000001">
    <ele>1407.0</ele>
   </trkpt>
   <trkpt lat="-7.78176" lon="111.78843">
    <ele>1407.0</ele>
   </trkpt>
   <trkpt lat="-7.78197" lon="111.78861">
    <ele>1407.0</ele>
   </trkpt>
   <trkpt lat="-7.78244" lon="111.78882000000002">
    <ele>1575.68</ele>
   </trkpt>
   <trkpt lat="-7.7828100000000004" lon="111.78886000000001">
    <ele>1575.68</ele>
   </trkpt>
   <trkpt lat="-7.7831600000000005" lon="111.78898000000001">
    <ele>1575.68</ele>
   </trkpt>
   <trkpt lat="-7.78345" lon="111.7891">
    <ele>1575.68</ele>
   </trkpt>
   <trkpt lat="-7.7838" lon="111.78935000000001">
    <ele>1575.68</ele>
   </trkpt>
   <trkpt lat="-7.78413" lon="111.78964">
    <ele>1575.68</ele>
   </trkpt>
   <trkpt lat="-7.7842400000000005" lon="111.78967000000002">
    <ele>1575.68</ele>
   </trkpt>
   <trkpt lat="-7.7845" lon="111.79001000000001">
    <ele>1575.68</ele>
   </trkpt>
   <trkpt lat="-7.78457" lon="111.79023000000001">
    <ele>1575.68</ele>
   </trkpt>
   <trkpt lat="-7.7846400000000004" lon="111.79038000000001">
    <ele>1575.68</ele>
   </trkpt>
   <trkpt lat="-7.78469" lon="111.79060000000001">
    <ele>1575.68</ele>
   </trkpt>
   <trkpt lat="-7.7848500000000005" lon="111.79094">
    <ele>1575.68</ele>
   </trkpt>
   <trkpt lat="-7.78495" lon="111.79124000000002">
    <ele>1575.68</ele>
   </trkpt>
   <trkpt lat="-7.7849900000000005" lon="111.79150000000001">
    <ele>1575.68</ele>
   </trkpt>
   <trkpt lat="-7.78497" lon="111.79176000000001">
    <ele>1575.68</ele>
   </trkpt>
   <trkpt lat="-7.78497" lon="111.79177000000001">
    <ele>1576.0</ele>
   </trkpt>
   <trkpt lat="-7.7849900000000005" lon="111.79150000000001">
    <ele>1576.0</ele>
   </trkpt>
   <trkpt lat="-7.78495" lon="111.79124000000002">
    <ele>1576.0</ele>
   </trkpt>
   <trkpt lat="-7.7848500000000005" lon="111.79094">
    <ele>1576.0</ele>
   </trkpt>
   <trkpt lat="-7.78469" lon="111.79060000000001">
    <ele>1576.0</ele>
   </trkpt>
   <trkpt lat="-7.7846400000000004" lon="111.79038000000001">
    <ele>1576.0</ele>
   </trkpt>
   <trkpt lat="-7.78457" lon="111.79023000000001">
    <ele>1576.0</ele>
   </trkpt>
   <trkpt lat="-7.7845" lon="111.79001000000001">
    <ele>1576.0</ele>
   </trkpt>
   <trkpt lat="-7.7842400000000005" lon="111.78967000000002">
    <ele>1576.0</ele>
   </trkpt>
   <trkpt lat="-7.78413" lon="111.78964">
    <ele>1576.0</ele>
   </trkpt>
   <trkpt lat="-7.7838" lon="111.78935000000001">
    <ele>1576.0</ele>
   </trkpt>
   <trkpt lat="-7.78345" lon="111.7891">
    <ele>1576.0</ele>
   </trkpt>
   <trkpt lat="-7.7831600000000005" lon="111.78898000000001">
    <ele>1576.0</ele>
   </trkpt>
   <trkpt lat="-7.7828100000000004" lon="111.78886000000001">
    <ele>1576.0</ele>
   </trkpt>
   <trkpt lat="-7.78244" lon="111.78882000000002">
    <ele>1576.0</ele>
   </trkpt>
   <trkpt lat="-7.78197" lon="111.78861">
    <ele>1407.0</ele>
   </trkpt>
   <trkpt lat="-7.78176" lon="111.78843">
    <ele>1407.0</ele>
   </trkpt>
   <trkpt lat="-7.78162" lon="111.78823000000001">
    <ele>1407.0</ele>
   </trkpt>
   <trkpt lat="-7.7814700000000006" lon="111.78821">
    <ele>1407.0</ele>
   </trkpt>
   <trkpt lat="-7.7812600000000005" lon="111.78800000000001">
    <ele>1407.0</ele>
   </trkpt>
   <trkpt lat="-7.7809800000000005" lon="111.78760000000001">
    <ele>1407.0</ele>
   </trkpt>
   <trkpt lat="-7.78061" lon="111.78736">
    <ele>1407.0</ele>
   </trkpt>
   <trkpt lat="-7.7802500000000006" lon="111.78721000000002">
    <ele>1407.0</ele>
   </trkpt>
   <trkpt lat="-7.7799700000000005" lon="111.78680000000001">
    <ele>1407.0</ele>
   </trkpt>
   <trkpt lat="-7.77974" lon="111.78685000000002">
    <ele>1407.0</ele>
   </trkpt>
   <trkpt lat="-7.77948" lon="111.78651">
    <ele>1407.0</ele>
   </trkpt>
   <trkpt lat="-7.77948" lon="111.78644000000001">
    <ele>1407.0</ele>
   </trkpt>
   <trkpt lat="-7.77953" lon="111.78632">
    <ele>1407.0</ele>
   </trkpt>
   <trkpt lat="-7.7796" lon="111.78625000000001">
    <ele>1407.0</ele>
   </trkpt>
   <trkpt lat="-7.77967" lon="111.78609000000002">
    <ele>1407.0</ele>
   </trkpt>
   <trkpt lat="-7.779700000000001" lon="111.78594000000001">
    <ele>1407.0</ele>
   </trkpt>
   <trkpt lat="-7.77967" lon="111.78565">
    <ele>1403.8700000000001</ele>
   </trkpt>
   <trkpt lat="-7.7796" lon="111.78543">
    <ele>1401.71</ele>
   </trkpt>
   <trkpt lat="-7.77934" lon="111.78512">
    <ele>1395.0600000000002</ele>
   </trkpt>
   <trkpt lat="-7.77899" lon="111.78494">
    <ele>1390.7200000000003</ele>
   </trkpt>
   <trkpt lat="-7.77878" lon="111.78485">
    <ele>1388.9600000000003</ele>
   </trkpt>
   <trkpt lat="-7.7785400000000005" lon="111.78463">
    <ele>1384.7800000000002</ele>
   </trkpt>
   <trkpt lat="-7.77852" lon="111.78462">
    <ele>1384.7800000000002</ele>
   </trkpt>
   <trkpt lat="-7.7785400000000005" lon="111.78462">
    <ele>1384.7800000000002</ele>
   </trkpt>
   <trkpt lat="-7.77791" lon="111.78457">
    <ele>1380.88</ele>
   </trkpt>
   <trkpt lat="-7.77779" lon="111.78452000000001">
    <ele>1380.19</ele>
   </trkpt>
   <trkpt lat="-7.77756" lon="111.78429000000001">
    <ele>1376.88</ele>
   </trkpt>
   <trkpt lat="-7.7773900000000005" lon="111.78424000000001">
    <ele>1374.19</ele>
   </trkpt>
   <trkpt lat="-7.77718" lon="111.78426">
    <ele>1369.0000000000002</ele>
   </trkpt>
   <trkpt lat="-7.7769900000000005" lon="111.78421000000002">
    <ele>1365.3400000000001</ele>
   </trkpt>
   <trkpt lat="-7.77657" lon="111.78426">
    <ele>1361.7</ele>
   </trkpt>
   <trkpt lat="-7.7763800000000005" lon="111.78423000000001">
    <ele>1359.7800000000002</ele>
   </trkpt>
   <trkpt lat="-7.77622" lon="111.78407000000001">
    <ele>1357.1000000000001</ele>
   </trkpt>
   <trkpt lat="-7.77575" lon="111.78386">
    <ele>1353.26</ele>
   </trkpt>
   <trkpt lat="-7.7755600000000005" lon="111.78386">
    <ele>1351.3700000000001</ele>
   </trkpt>
   <trkpt lat="-7.77521" lon="111.78414000000001">
    <ele>1349.67</ele>
   </trkpt>
   <trkpt lat="-7.77505" lon="111.78416000000001">
    <ele>1349.49</ele>
   </trkpt>
   <trkpt lat="-7.77467" lon="111.78405000000001">
    <ele>1346.9</ele>
   </trkpt>
   <trkpt lat="-7.7742700000000005" lon="111.78403000000002">
    <ele>1339.47</ele>
   </trkpt>
   <trkpt lat="-7.77418" lon="111.78404">
    <ele>1337.46</ele>
   </trkpt>
   <trkpt lat="-7.77411" lon="111.78402000000001">
    <ele>1337.46</ele>
   </trkpt>
   <trkpt lat="-7.7740100000000005" lon="111.78392000000001">
    <ele>1333.13</ele>
   </trkpt>
   <trkpt lat="-7.77397" lon="111.78373">
    <ele>1329.26</ele>
   </trkpt>
   <trkpt lat="-7.7739" lon="111.78373">
    <ele>1326.2800000000002</ele>
   </trkpt>
   <trkpt lat="-7.77385" lon="111.78394000000002">
    <ele>1323.42</ele>
   </trkpt>
   <trkpt lat="-7.77357" lon="111.78409">
    <ele>1315.25</ele>
   </trkpt>
   <trkpt lat="-7.77282" lon="111.78397000000001">
    <ele>1295.8100000000002</ele>
   </trkpt>
   <trkpt lat="-7.77256" lon="111.78401000000001">
    <ele>1292.0</ele>
   </trkpt>
   <trkpt lat="-7.77188" lon="111.78396000000001">
    <ele>1276.3000000000002</ele>
   </trkpt>
   <trkpt lat="-7.77134" lon="111.78388000000001">
    <ele>1263.5100000000002</ele>
   </trkpt>
   <trkpt lat="-7.77125" lon="111.78391">
    <ele>1258.96</ele>
   </trkpt>
   <trkpt lat="-7.7712200000000005" lon="111.78397000000001">
    <ele>1257.91</ele>
   </trkpt>
   <trkpt lat="-7.77127" lon="111.78409">
    <ele>1256.07</ele>
   </trkpt>
   <trkpt lat="-7.77125" lon="111.78416000000001">
    <ele>1253.57</ele>
   </trkpt>
   <trkpt lat="-7.77113" lon="111.78415000000001">
    <ele>1252.7100000000003</ele>
   </trkpt>
   <trkpt lat="-7.77099" lon="111.78405000000001">
    <ele>1249.0700000000002</ele>
   </trkpt>
   <trkpt lat="-7.7709600000000005" lon="111.78392000000001">
    <ele>1247.43</ele>
   </trkpt>
   <trkpt lat="-7.7709600000000005" lon="111.7835">
    <ele>1239.95</ele>
   </trkpt>
   <trkpt lat="-7.7705400000000004" lon="111.78368">
    <ele>1229.0100000000002</ele>
   </trkpt>
   <trkpt lat="-7.769719999980241" lon="111.78346499956083">
    <ele>1213.53</ele>
   </trkpt>
   <trkpt lat="-7.7689" lon="111.78325000000001">
    <ele>1199.77</ele>
   </trkpt>
   <trkpt lat="-7.76883" lon="111.78313000000001">
    <ele>1197.6</ele>
   </trkpt>
   <trkpt lat="-7.76895" lon="111.78303000000001">
    <ele>1195.9</ele>
   </trkpt>
   <trkpt lat="-7.769489999949034" lon="111.78281500031828">
    <ele>1188.0300000000002</ele>
   </trkpt>
   <trkpt lat="-7.77003" lon="111.7826">
    <ele>1178.77</ele>
   </trkpt>
   <trkpt lat="-7.77026" lon="111.7823">
    <ele>1173.6100000000001</ele>
   </trkpt>
   <trkpt lat="-7.77031" lon="111.78212">
    <ele>1172.17</ele>
   </trkpt>
   <trkpt lat="-7.77024" lon="111.78205000000001">
    <ele>1171.06</ele>
   </trkpt>
   <trkpt lat="-7.7700000000000005" lon="111.78206000000002">
    <ele>1166.0700000000002</ele>
   </trkpt>
   <trkpt lat="-7.769340000000001" lon="111.78179000000002">
    <ele>1153.39</ele>
   </trkpt>
   <trkpt lat="-7.7688500000000005" lon="111.78126">
    <ele>1138.8</ele>
   </trkpt>
   <trkpt lat="-7.768350000000001" lon="111.78108">
    <ele>1131.0</ele>
   </trkpt>
   <trkpt lat="-7.76787" lon="111.78089000000001">
    <ele>1123.4</ele>
   </trkpt>
   <trkpt lat="-7.76733" lon="111.78040000000001">
    <ele>1108.5900000000001</ele>
   </trkpt>
   <trkpt lat="-7.767" lon="111.78032">
    <ele>1097.5900000000001</ele>
   </trkpt>
   <trkpt lat="-7.7669500000000005" lon="111.7805">
    <ele>1094.4900000000002</ele>
   </trkpt>
   <trkpt lat="-7.76665" lon="111.78020000000001">
    <ele>1088.94</ele>
   </trkpt>
   <trkpt lat="-7.76604" lon="111.77957">
    <ele>1069.3700000000001</ele>
   </trkpt>
   <trkpt lat="-7.76578" lon="111.77891000000001">
    <ele>1055.11</ele>
   </trkpt>
   <trkpt lat="-7.76569" lon="111.77846000000001">
    <ele>1051.93</ele>
   </trkpt>
   <trkpt lat="-7.7657300000000005" lon="111.77834000000001">
    <ele>1049.91</ele>
   </trkpt>
   <trkpt lat="-7.76517" lon="111.77776000000001">
    <ele>1036.74</ele>
   </trkpt>
   <trkpt lat="-7.76496" lon="111.77743000000001">
    <ele>1030.68</ele>
   </trkpt>
   <trkpt lat="-7.7647" lon="111.77723">
    <ele>1028.74</ele>
   </trkpt>
   <trkpt lat="-7.764239999892013" lon="111.7770949998143">
    <ele>1025.29</ele>
   </trkpt>
   <trkpt lat="-7.763780000000001" lon="111.77696">
    <ele>1017.29</ele>
   </trkpt>
   <trkpt lat="-7.7634300000000005" lon="111.77691000000002">
    <ele>1011.8500000000001</ele>
   </trkpt>
   <trkpt lat="-7.7629600000000005" lon="111.77693000000001">
    <ele>1005.87</ele>
   </trkpt>
   <trkpt lat="-7.7626100000000005" lon="111.77712000000001">
    <ele>1003.6100000000001</ele>
   </trkpt>
   <trkpt lat="-7.7621599998059185" lon="111.7772150001449">
    <ele>999.6300000000001</ele>
   </trkpt>
   <trkpt lat="-7.761710000000001" lon="111.77731000000001">
    <ele>990.0000000000001</ele>
   </trkpt>
   <trkpt lat="-7.76132" lon="111.77737">
    <ele>984.57</ele>
   </trkpt>
   <trkpt lat="-7.7608500000000005" lon="111.77764">
    <ele>976.58</ele>
   </trkpt>
   <trkpt lat="-7.760310000072683" lon="111.77779500018627">
    <ele>968.37</ele>
   </trkpt>
   <trkpt lat="-7.7597700000000005" lon="111.77795">
    <ele>959.83</ele>
   </trkpt>
   <trkpt lat="-7.759220000005065" lon="111.7780750001665">
    <ele>948.0600000000001</ele>
   </trkpt>
   <trkpt lat="-7.75867" lon="111.77820000000001">
    <ele>943.2300000000001</ele>
   </trkpt>
   <trkpt lat="-7.7583" lon="111.77856000000001">
    <ele>936.6800000000001</ele>
   </trkpt>
   <trkpt lat="-7.75811" lon="111.77857000000002">
    <ele>934.1700000000001</ele>
   </trkpt>
   <trkpt lat="-7.75783" lon="111.77851000000001">
    <ele>929.1600000000001</ele>
   </trkpt>
   <trkpt lat="-7.7574700000000005" lon="111.77869000000001">
    <ele>921.5300000000001</ele>
   </trkpt>
   <trkpt lat="-7.7569300000000005" lon="111.77870000000001">
    <ele>911.1600000000001</ele>
   </trkpt>
   <trkpt lat="-7.75654" lon="111.77857000000002">
    <ele>900.6800000000001</ele>
   </trkpt>
   <trkpt lat="-7.75569" lon="111.77854">
    <ele>885.51</ele>
   </trkpt>
   <trkpt lat="-7.75532" lon="111.77849">
    <ele>877.7800000000001</ele>
   </trkpt>
   <trkpt lat="-7.75492" lon="111.77838000000001">
    <ele>868.33</ele>
   </trkpt>
   <trkpt lat="-7.75473" lon="111.77841000000001">
    <ele>864.83</ele>
   </trkpt>
   <trkpt lat="-7.754275000110591" lon="111.77883500055313">
    <ele>852.7900000000001</ele>
   </trkpt>
   <trkpt lat="-7.753820000000001" lon="111.77926000000001">
    <ele>840.0000000000001</ele>
   </trkpt>
   <trkpt lat="-7.75335999988001" lon="111.7793200000818">
    <ele>830.2400000000001</ele>
   </trkpt>
   <trkpt lat="-7.7529" lon="111.77938">
    <ele>821.58</ele>
   </trkpt>
   <trkpt lat="-7.7523800000000005" lon="111.77967000000001">
    <ele>812.9000000000001</ele>
   </trkpt>
   <trkpt lat="-7.75201" lon="111.77948">
    <ele>809.27</ele>
   </trkpt>
   <trkpt lat="-7.75147" lon="111.77897000000002">
    <ele>804.4100000000001</ele>
   </trkpt>
   <trkpt lat="-7.7508450000451585" lon="111.77891499992201">
    <ele>797.34</ele>
   </trkpt>
   <trkpt lat="-7.7502200000000006" lon="111.77886000000001">
    <ele>797.0</ele>
   </trkpt>
   <trkpt lat="-7.75011" lon="111.77884">
    <ele>797.0</ele>
   </trkpt>
   <trkpt lat="-7.74999" lon="111.77879000000001">
    <ele>797.0</ele>
   </trkpt>
   <trkpt lat="-7.7499" lon="111.77856000000001">
    <ele>797.0</ele>
   </trkpt>
   <trkpt lat="-7.7498000000000005" lon="111.77852000000001">
    <ele>797.0</ele>
   </trkpt>
   <trkpt lat="-7.74945" lon="111.77852000000001">
    <ele>759.94</ele>
   </trkpt>
   <trkpt lat="-7.74899000009728" lon="111.7781599995646">
    <ele>759.94</ele>
   </trkpt>
   <trkpt lat="-7.748530000000001" lon="111.77780000000001">
    <ele>759.94</ele>
   </trkpt>
  </trkseg>
 </trk>
</gpx>
