<?xml version="1.0" encoding="UTF-8"?>
<gpx creator="StravaGPX" version="1.1" xmlns="http://www.topografix.com/GPX/1/1" xmlns:xsi="http://www.w3.org/2001/XMLSchema-instance" xsi:schemaLocation="http://www.topografix.com/GPX/1/1 http://www.topografix.com/GPX/1/1/gpx.xsd">
 <metadata>
  <name>Wilis via Jurang Senggani</name>
  <author>
   <name>Surya Wisnugraha</name>
   <link href="https://www.strava.com/athletes/130816333"/>
  </author>
  <copyright author="OpenStreetMap contributors">
   <year>2020</year>
   <license>https://www.openstreetmap.org/copyright</license>
  </copyright>
  <link href="https://www.strava.com/routes/3512001899964837582"/>
 </metadata>
 <trk>
  <name>Wilis via Jurang Senggani</name>
  <link href="https://www.strava.com/routes/3512001899964837582"/>
  <type>hiking</type>
  <trkseg>
   <trkpt lat="-7.91553" lon="111.82659000000001">
    <ele>797.59</ele>
   </trkpt>
   <trkpt lat="-7.914915000097278" lon="111.82638999971772">
    <ele>796.48</ele>
   </trkpt>
   <trkpt lat="-7.914300000000001" lon="111.82619000000001">
    <ele>795.0200000000001</ele>
   </trkpt>
   <trkpt lat="-7.91384" lon="111.82606000000001">
    <ele>799.71</ele>
   </trkpt>
   <trkpt lat="-7.91368" lon="111.82603">
    <ele>802.95</ele>
   </trkpt>
   <trkpt lat="-7.91356" lon="111.82591000000001">
    <ele>806.64</ele>
   </trkpt>
   <trkpt lat="-7.91295" lon="111.82578000000001">
    <ele>814.07</ele>
   </trkpt>
   <trkpt lat="-7.91279" lon="111.82581">
    <ele>817.12</ele>
   </trkpt>
   <trkpt lat="-7.9126" lon="111.82587000000001">
    <ele>821.69</ele>
   </trkpt>
   <trkpt lat="-7.91239" lon="111.82581">
    <ele>824.03</ele>
   </trkpt>
   <trkpt lat="-7.9121500000000005" lon="111.82570000000001">
    <ele>828.73</ele>
   </trkpt>
   <trkpt lat="-7.91194" lon="111.82547000000001">
    <ele>833.8100000000001</ele>
   </trkpt>
   <trkpt lat="-7.91173" lon="111.82537">
    <ele>836.3800000000001</ele>
   </trkpt>
   <trkpt lat="-7.91152" lon="111.82532">
    <ele>838.58</ele>
   </trkpt>
   <trkpt lat="-7.9113500000000005" lon="111.82533000000001">
    <ele>841.01</ele>
   </trkpt>
   <trkpt lat="-7.9109300000000005" lon="111.82516000000001">
    <ele>845.8000000000001</ele>
   </trkpt>
   <trkpt lat="-7.91049" lon="111.82520000000001">
    <ele>855.01</ele>
   </trkpt>
   <trkpt lat="-7.90981" lon="111.82521000000001">
    <ele>865.92</ele>
   </trkpt>
   <trkpt lat="-7.90957" lon="111.82526000000001">
    <ele>869.5100000000001</ele>
   </trkpt>
   <trkpt lat="-7.90943" lon="111.82536">
    <ele>872.8500000000001</ele>
   </trkpt>
   <trkpt lat="-7.90929" lon="111.82543000000001">
    <ele>875.86</ele>
   </trkpt>
   <trkpt lat="-7.90913" lon="111.82542000000001">
    <ele>878.33</ele>
   </trkpt>
   <trkpt lat="-7.90901" lon="111.82496">
    <ele>886.6400000000001</ele>
   </trkpt>
   <trkpt lat="-7.90901" lon="111.82455">
    <ele>891.6</ele>
   </trkpt>
   <trkpt lat="-7.909090000000001" lon="111.82441000000001">
    <ele>897.0</ele>
   </trkpt>
   <trkpt lat="-7.90955" lon="111.82416">
    <ele>906.46</ele>
   </trkpt>
   <trkpt lat="-7.9096400000000004" lon="111.82402">
    <ele>908.1500000000001</ele>
   </trkpt>
   <trkpt lat="-7.909590000000001" lon="111.8238">
    <ele>909.6800000000001</ele>
   </trkpt>
   <trkpt lat="-7.9093800000000005" lon="111.82359000000001">
    <ele>912.7600000000001</ele>
   </trkpt>
   <trkpt lat="-7.909050000000001" lon="111.82345000000001">
    <ele>918.0400000000001</ele>
   </trkpt>
   <trkpt lat="-7.90873" lon="111.82346000000001">
    <ele>921.87</ele>
   </trkpt>
   <trkpt lat="-7.908" lon="111.82355000000001">
    <ele>930.97</ele>
   </trkpt>
   <trkpt lat="-7.90767" lon="111.82353">
    <ele>933.9600000000002</ele>
   </trkpt>
   <trkpt lat="-7.90746" lon="111.82346000000001">
    <ele>934.27</ele>
   </trkpt>
   <trkpt lat="-7.90718" lon="111.82328000000001">
    <ele>937.1100000000001</ele>
   </trkpt>
   <trkpt lat="-7.9069" lon="111.82319000000001">
    <ele>939.2900000000001</ele>
   </trkpt>
   <trkpt lat="-7.906540000000001" lon="111.82319000000001">
    <ele>940.07</ele>
   </trkpt>
   <trkpt lat="-7.90624" lon="111.82322">
    <ele>939.39</ele>
   </trkpt>
   <trkpt lat="-7.90591" lon="111.82318000000001">
    <ele>938.44</ele>
   </trkpt>
   <trkpt lat="-7.90556" lon="111.82322">
    <ele>938.2</ele>
   </trkpt>
   <trkpt lat="-7.9053700000000005" lon="111.82317">
    <ele>939.0600000000001</ele>
   </trkpt>
   <trkpt lat="-7.90521" lon="111.82309000000001">
    <ele>938.3500000000001</ele>
   </trkpt>
   <trkpt lat="-7.90474" lon="111.82316000000002">
    <ele>935.8400000000001</ele>
   </trkpt>
   <trkpt lat="-7.9045700000000005" lon="111.82312">
    <ele>936.88</ele>
   </trkpt>
   <trkpt lat="-7.90418" lon="111.8229">
    <ele>941.7900000000001</ele>
   </trkpt>
   <trkpt lat="-7.90408" lon="111.82269000000001">
    <ele>943.2800000000001</ele>
   </trkpt>
   <trkpt lat="-7.9038900000000005" lon="111.82252000000001">
    <ele>943.95</ele>
   </trkpt>
   <trkpt lat="-7.90357" lon="111.82232">
    <ele>945.15</ele>
   </trkpt>
   <trkpt lat="-7.90324" lon="111.82208000000001">
    <ele>948.35</ele>
   </trkpt>
   <trkpt lat="-7.90305" lon="111.82186000000002">
    <ele>950.21</ele>
   </trkpt>
   <trkpt lat="-7.902940000000001" lon="111.82177000000001">
    <ele>953.0</ele>
   </trkpt>
   <trkpt lat="-7.9026000000000005" lon="111.82159000000001">
    <ele>969.11</ele>
   </trkpt>
   <trkpt lat="-7.9020600000000005" lon="111.82139000000001">
    <ele>987.9200000000001</ele>
   </trkpt>
   <trkpt lat="-7.90174" lon="111.82135000000001">
    <ele>1000.6600000000001</ele>
   </trkpt>
   <trkpt lat="-7.9011000000000005" lon="111.82113000000001">
    <ele>1024.0</ele>
   </trkpt>
   <trkpt lat="-7.90103" lon="111.82108000000001">
    <ele>1024.0</ele>
   </trkpt>
   <trkpt lat="-7.90096" lon="111.82085000000001">
    <ele>1033.42</ele>
   </trkpt>
   <trkpt lat="-7.90075" lon="111.82089">
    <ele>1038.34</ele>
   </trkpt>
   <trkpt lat="-7.900440000000001" lon="111.82082000000001">
    <ele>1042.96</ele>
   </trkpt>
   <trkpt lat="-7.90019" lon="111.8207">
    <ele>1049.01</ele>
   </trkpt>
   <trkpt lat="-7.8996900000000005" lon="111.82056000000001">
    <ele>1057.7500000000002</ele>
   </trkpt>
   <trkpt lat="-7.89944" lon="111.82047000000001">
    <ele>1064.01</ele>
   </trkpt>
   <trkpt lat="-7.89925" lon="111.82043000000002">
    <ele>1069.86</ele>
   </trkpt>
   <trkpt lat="-7.89904" lon="111.82029000000001">
    <ele>1077.91</ele>
   </trkpt>
   <trkpt lat="-7.8989400000000005" lon="111.82011000000001">
    <ele>1081.0600000000002</ele>
   </trkpt>
   <trkpt lat="-7.898440000000001" lon="111.81996000000001">
    <ele>1085.0000000000002</ele>
   </trkpt>
   <trkpt lat="-7.89796" lon="111.81979000000001">
    <ele>1091.68</ele>
   </trkpt>
   <trkpt lat="-7.89747" lon="111.81979000000001">
    <ele>1096.0400000000002</ele>
   </trkpt>
   <trkpt lat="-7.89723" lon="111.81974000000001">
    <ele>1096.06</ele>
   </trkpt>
   <trkpt lat="-7.89695" lon="111.81957000000001">
    <ele>1096.84</ele>
   </trkpt>
   <trkpt lat="-7.89667" lon="111.81933000000001">
    <ele>1099.67</ele>
   </trkpt>
   <trkpt lat="-7.89592" lon="111.81908000000001">
    <ele>1113.0500000000002</ele>
   </trkpt>
   <trkpt lat="-7.89573" lon="111.81906000000001">
    <ele>1116.88</ele>
   </trkpt>
   <trkpt lat="-7.89531" lon="111.81866000000001">
    <ele>1124.97</ele>
   </trkpt>
   <trkpt lat="-7.894950000000001" lon="111.81824">
    <ele>1133.45</ele>
   </trkpt>
   <trkpt lat="-7.89458" lon="111.81784">
    <ele>1141.37</ele>
   </trkpt>
   <trkpt lat="-7.8943" lon="111.81764000000001">
    <ele>1143.07</ele>
   </trkpt>
   <trkpt lat="-7.89411" lon="111.81743000000002">
    <ele>1142.8700000000001</ele>
   </trkpt>
   <trkpt lat="-7.8938500000000005" lon="111.81724000000001">
    <ele>1142.5200000000002</ele>
   </trkpt>
   <trkpt lat="-7.89341" lon="111.81703">
    <ele>1145.1</ele>
   </trkpt>
   <trkpt lat="-7.89308" lon="111.81693000000001">
    <ele>1150.02</ele>
   </trkpt>
   <trkpt lat="-7.89252" lon="111.81679000000001">
    <ele>1155.2</ele>
   </trkpt>
   <trkpt lat="-7.89219" lon="111.81661000000001">
    <ele>1154.35</ele>
   </trkpt>
   <trkpt lat="-7.89174" lon="111.81631000000002">
    <ele>1151.17</ele>
   </trkpt>
   <trkpt lat="-7.8913400000000005" lon="111.8161">
    <ele>1154.3700000000001</ele>
   </trkpt>
   <trkpt lat="-7.89106" lon="111.81591">
    <ele>1159.93</ele>
   </trkpt>
   <trkpt lat="-7.890720000000001" lon="111.81582">
    <ele>1164.67</ele>
   </trkpt>
   <trkpt lat="-7.890289999741002" lon="111.81560499961947">
    <ele>1176.8700000000001</ele>
   </trkpt>
   <trkpt lat="-7.8898600000000005" lon="111.81539000000001">
    <ele>1190.0600000000002</ele>
   </trkpt>
   <trkpt lat="-7.88963" lon="111.81539000000001">
    <ele>1195.64</ele>
   </trkpt>
   <trkpt lat="-7.88942" lon="111.81542">
    <ele>1198.59</ele>
   </trkpt>
   <trkpt lat="-7.88909" lon="111.81531000000001">
    <ele>1208.2700000000002</ele>
   </trkpt>
   <trkpt lat="-7.88869" lon="111.81486000000001">
    <ele>1222.7400000000002</ele>
   </trkpt>
   <trkpt lat="-7.88862" lon="111.81457">
    <ele>1228.11</ele>
   </trkpt>
   <trkpt lat="-7.888580000000001" lon="111.81414000000001">
    <ele>1233.77</ele>
   </trkpt>
   <trkpt lat="-7.88801" lon="111.81452000000002">
    <ele>1268.28</ele>
   </trkpt>
   <trkpt lat="-7.8878200000000005" lon="111.81475">
    <ele>1278.2900000000002</ele>
   </trkpt>
   <trkpt lat="-7.88764" lon="111.81502">
    <ele>1293.9900000000002</ele>
   </trkpt>
   <trkpt lat="-7.88738" lon="111.81509000000001">
    <ele>1305.71</ele>
   </trkpt>
   <trkpt lat="-7.88731" lon="111.81532000000001">
    <ele>1314.71</ele>
   </trkpt>
   <trkpt lat="-7.88712" lon="111.81531000000001">
    <ele>1321.97</ele>
   </trkpt>
   <trkpt lat="-7.88677" lon="111.81552">
    <ele>1333.79</ele>
   </trkpt>
   <trkpt lat="-7.88651" lon="111.81548000000001">
    <ele>1344.03</ele>
   </trkpt>
   <trkpt lat="-7.886340000000001" lon="111.81562000000001">
    <ele>1350.3400000000001</ele>
   </trkpt>
   <trkpt lat="-7.8860600000000005" lon="111.81571000000001">
    <ele>1357.31</ele>
   </trkpt>
   <trkpt lat="-7.8858500000000005" lon="111.81587">
    <ele>1367.13</ele>
   </trkpt>
   <trkpt lat="-7.88557" lon="111.81591">
    <ele>1379.1100000000001</ele>
   </trkpt>
   <trkpt lat="-7.885400000000001" lon="111.81599000000001">
    <ele>1385.0</ele>
   </trkpt>
   <trkpt lat="-7.88536" lon="111.81628">
    <ele>1393.43</ele>
   </trkpt>
   <trkpt lat="-7.88522" lon="111.81658000000002">
    <ele>1401.78</ele>
   </trkpt>
   <trkpt lat="-7.8851" lon="111.81663">
    <ele>1402.8500000000001</ele>
   </trkpt>
   <trkpt lat="-7.885110000000001" lon="111.81663">
    <ele>1402.8500000000001</ele>
   </trkpt>
   <trkpt lat="-7.885050000000001" lon="111.81657000000001">
    <ele>1403.14</ele>
   </trkpt>
   <trkpt lat="-7.88489" lon="111.8165">
    <ele>1403.0600000000002</ele>
   </trkpt>
   <trkpt lat="-7.88466" lon="111.8165">
    <ele>1403.0300000000002</ele>
   </trkpt>
   <trkpt lat="-7.88426" lon="111.81642000000001">
    <ele>1405.4</ele>
   </trkpt>
   <trkpt lat="-7.88405" lon="111.8165">
    <ele>1408.3500000000001</ele>
   </trkpt>
   <trkpt lat="-7.88388" lon="111.81639000000001">
    <ele>1408.6200000000001</ele>
   </trkpt>
   <trkpt lat="-7.88367" lon="111.81634000000001">
    <ele>1408.29</ele>
   </trkpt>
   <trkpt lat="-7.88339" lon="111.81640000000002">
    <ele>1409.24</ele>
   </trkpt>
   <trkpt lat="-7.8831500000000005" lon="111.81628">
    <ele>1411.93</ele>
   </trkpt>
   <trkpt lat="-7.88271" lon="111.81625000000001">
    <ele>1416.9600000000003</ele>
   </trkpt>
   <trkpt lat="-7.8823300000000005" lon="111.81611000000001">
    <ele>1422.4800000000002</ele>
   </trkpt>
   <trkpt lat="-7.882000000000001" lon="111.81590000000001">
    <ele>1432.46</ele>
   </trkpt>
   <trkpt lat="-7.88161" lon="111.81595000000002">
    <ele>1449.57</ele>
   </trkpt>
   <trkpt lat="-7.88149" lon="111.81584000000001">
    <ele>1455.96</ele>
   </trkpt>
   <trkpt lat="-7.88114" lon="111.81577000000001">
    <ele>1465.66</ele>
   </trkpt>
   <trkpt lat="-7.88053" lon="111.81578">
    <ele>1484.17</ele>
   </trkpt>
   <trkpt lat="-7.8799600000000005" lon="111.81575000000001">
    <ele>1502.8100000000002</ele>
   </trkpt>
   <trkpt lat="-7.879349999914172" lon="111.81564999983667">
    <ele>1521.97</ele>
   </trkpt>
   <trkpt lat="-7.8787400000000005" lon="111.81555000000002">
    <ele>1538.68</ele>
   </trkpt>
   <trkpt lat="-7.8781300000000005" lon="111.81556">
    <ele>1549.64</ele>
   </trkpt>
   <trkpt lat="-7.87783" lon="111.8156">
    <ele>1551.9900000000002</ele>
   </trkpt>
   <trkpt lat="-7.877210000000001" lon="111.81551">
    <ele>1565.0000000000002</ele>
   </trkpt>
   <trkpt lat="-7.87689" lon="111.81535000000001">
    <ele>1579.8</ele>
   </trkpt>
   <trkpt lat="-7.87633" lon="111.81514000000001">
    <ele>1607.1000000000001</ele>
   </trkpt>
   <trkpt lat="-7.8762300000000005" lon="111.81524">
    <ele>1612.5500000000002</ele>
   </trkpt>
   <trkpt lat="-7.8759500000000005" lon="111.81524">
    <ele>1621.5000000000002</ele>
   </trkpt>
   <trkpt lat="-7.87553" lon="111.81516">
    <ele>1644.7500000000002</ele>
   </trkpt>
   <trkpt lat="-7.87518" lon="111.81504000000001">
    <ele>1656.1000000000001</ele>
   </trkpt>
   <trkpt lat="-7.87492" lon="111.81503000000001">
    <ele>1678.2</ele>
   </trkpt>
   <trkpt lat="-7.87471" lon="111.81514000000001">
    <ele>1698.53</ele>
   </trkpt>
   <trkpt lat="-7.8744700000000005" lon="111.81536000000001">
    <ele>1720.5800000000002</ele>
   </trkpt>
   <trkpt lat="-7.87429" lon="111.81539000000001">
    <ele>1732.9800000000002</ele>
   </trkpt>
   <trkpt lat="-7.87415" lon="111.81531000000001">
    <ele>1740.5800000000002</ele>
   </trkpt>
   <trkpt lat="-7.87396" lon="111.81508000000001">
    <ele>1750.1200000000001</ele>
   </trkpt>
   <trkpt lat="-7.8737" lon="111.81502">
    <ele>1766.25</ele>
   </trkpt>
   <trkpt lat="-7.87342" lon="111.81470000000002">
    <ele>1784.9800000000002</ele>
   </trkpt>
   <trkpt lat="-7.87307" lon="111.81449">
    <ele>1810.6200000000001</ele>
   </trkpt>
   <trkpt lat="-7.8727100000000005" lon="111.81438000000001">
    <ele>1822.27</ele>
   </trkpt>
   <trkpt lat="-7.87253" lon="111.81421">
    <ele>1841.29</ele>
   </trkpt>
   <trkpt lat="-7.87201" lon="111.81427000000001">
    <ele>1863.2400000000002</ele>
   </trkpt>
   <trkpt lat="-7.8717500000000005" lon="111.81402000000001">
    <ele>1877.0300000000002</ele>
   </trkpt>
   <trkpt lat="-7.87138" lon="111.81386">
    <ele>1899.13</ele>
   </trkpt>
   <trkpt lat="-7.870805000174684" lon="111.81355499961113">
    <ele>1928.3600000000001</ele>
   </trkpt>
   <trkpt lat="-7.87023" lon="111.81325000000001">
    <ele>1952.0100000000002</ele>
   </trkpt>
   <trkpt lat="-7.87009" lon="111.81334000000001">
    <ele>1961.8500000000001</ele>
   </trkpt>
   <trkpt lat="-7.86955" lon="111.81287">
    <ele>1995.0</ele>
   </trkpt>
   <trkpt lat="-7.869160000000001" lon="111.81277000000001">
    <ele>2004.1800000000003</ele>
   </trkpt>
   <trkpt lat="-7.869060000000001" lon="111.81295000000001">
    <ele>2017.51</ele>
   </trkpt>
   <trkpt lat="-7.868990000000001" lon="111.81347000000001">
    <ele>1995.5800000000002</ele>
   </trkpt>
   <trkpt lat="-7.869000000000001" lon="111.81356000000001">
    <ele>1989.6100000000001</ele>
   </trkpt>
   <trkpt lat="-7.869060000000001" lon="111.81378000000001">
    <ele>1987.1900000000003</ele>
   </trkpt>
   <trkpt lat="-7.868990000000001" lon="111.81354">
    <ele>1986.8700000000001</ele>
   </trkpt>
   <trkpt lat="-7.868990000000001" lon="111.81348000000001">
    <ele>1991.17</ele>
   </trkpt>
   <trkpt lat="-7.8690500000000005" lon="111.81315000000001">
    <ele>2012.0</ele>
   </trkpt>
   <trkpt lat="-7.869070000000001" lon="111.81287">
    <ele>2018.4100000000003</ele>
   </trkpt>
   <trkpt lat="-7.86915" lon="111.81277000000001">
    <ele>2018.88</ele>
   </trkpt>
   <trkpt lat="-7.86908" lon="111.8127">
    <ele>2005.1499999999999</ele>
   </trkpt>
   <trkpt lat="-7.868845000319221" lon="111.81221499980937">
    <ele>2016.5700000000002</ele>
   </trkpt>
   <trkpt lat="-7.86861" lon="111.81173000000001">
    <ele>2020.41</ele>
   </trkpt>
   <trkpt lat="-7.86826" lon="111.81141000000001">
    <ele>2022.8600000000001</ele>
   </trkpt>
   <trkpt lat="-7.868" lon="111.81123000000001">
    <ele>2025.7500000000005</ele>
   </trkpt>
   <trkpt lat="-7.867520000021244" lon="111.81109999984986">
    <ele>2034.37</ele>
   </trkpt>
   <trkpt lat="-7.86704" lon="111.81097000000001">
    <ele>2041.3700000000001</ele>
   </trkpt>
   <trkpt lat="-7.8666100000000005" lon="111.81080000000001">
    <ele>2045.83</ele>
   </trkpt>
   <trkpt lat="-7.86636" lon="111.81051000000001">
    <ele>2047.7000000000003</ele>
   </trkpt>
   <trkpt lat="-7.8662600000000005" lon="111.81">
    <ele>2051.2300000000005</ele>
   </trkpt>
   <trkpt lat="-7.8663300000000005" lon="111.80977000000001">
    <ele>2052.08</ele>
   </trkpt>
   <trkpt lat="-7.86636" lon="111.80938">
    <ele>2053.8</ele>
   </trkpt>
   <trkpt lat="-7.8661" lon="111.80863000000001">
    <ele>2064.86</ele>
   </trkpt>
   <trkpt lat="-7.865805000841349" lon="111.80779999948376">
    <ele>2076.2</ele>
   </trkpt>
   <trkpt lat="-7.8655100000000004" lon="111.80697">
    <ele>2082.77</ele>
   </trkpt>
   <trkpt lat="-7.865310000000001" lon="111.80618000000001">
    <ele>2089.0</ele>
   </trkpt>
   <trkpt lat="-7.86535" lon="111.80528000000001">
    <ele>2083.88</ele>
   </trkpt>
   <trkpt lat="-7.86563" lon="111.80471000000001">
    <ele>2079.94</ele>
   </trkpt>
   <trkpt lat="-7.8657" lon="111.80412000000001">
    <ele>2077.36</ele>
   </trkpt>
   <trkpt lat="-7.8658600000000005" lon="111.80340000000001">
    <ele>2075.99</ele>
   </trkpt>
   <trkpt lat="-7.86563" lon="111.80273000000001">
    <ele>2073.3</ele>
   </trkpt>
   <trkpt lat="-7.86568" lon="111.80211000000001">
    <ele>2069.0</ele>
   </trkpt>
   <trkpt lat="-7.86577" lon="111.80164">
    <ele>2066.23</ele>
   </trkpt>
   <trkpt lat="-7.86596" lon="111.80162000000001">
    <ele>2064.9</ele>
   </trkpt>
   <trkpt lat="-7.8663300000000005" lon="111.80172">
    <ele>2061.3399999999997</ele>
   </trkpt>
   <trkpt lat="-7.866859999970878" lon="111.80160000016384">
    <ele>2057.0000000000005</ele>
   </trkpt>
   <trkpt lat="-7.86739" lon="111.80148000000001">
    <ele>2053.92</ele>
   </trkpt>
   <trkpt lat="-7.86744" lon="111.80116000000001">
    <ele>2053.21</ele>
   </trkpt>
   <trkpt lat="-7.86772" lon="111.80116000000001">
    <ele>2049.92</ele>
   </trkpt>
   <trkpt lat="-7.8683000000000005" lon="111.80124">
    <ele>2046.04</ele>
   </trkpt>
   <trkpt lat="-7.86873" lon="111.80103000000001">
    <ele>2041.3200000000002</ele>
   </trkpt>
   <trkpt lat="-7.86917" lon="111.80095000000001">
    <ele>2039.0100000000002</ele>
   </trkpt>
   <trkpt lat="-7.869180000000001" lon="111.80095000000001">
    <ele>2039.0100000000002</ele>
   </trkpt>
   <trkpt lat="-7.86873" lon="111.80103000000001">
    <ele>2041.3200000000002</ele>
   </trkpt>
   <trkpt lat="-7.8683000000000005" lon="111.80124">
    <ele>2046.04</ele>
   </trkpt>
   <trkpt lat="-7.86772" lon="111.80116000000001">
    <ele>2049.92</ele>
   </trkpt>
   <trkpt lat="-7.86744" lon="111.80116000000001">
    <ele>2053.21</ele>
   </trkpt>
   <trkpt lat="-7.86739" lon="111.80148000000001">
    <ele>2056.01</ele>
   </trkpt>
   <trkpt lat="-7.866860000063197" lon="111.80160000014293">
    <ele>2057.0000000000005</ele>
   </trkpt>
   <trkpt lat="-7.8663300000000005" lon="111.80172">
    <ele>2061.3399999999997</ele>
   </trkpt>
   <trkpt lat="-7.86596" lon="111.80162000000001">
    <ele>2064.9</ele>
   </trkpt>
   <trkpt lat="-7.86577" lon="111.80164">
    <ele>2065.7400000000002</ele>
   </trkpt>
   <trkpt lat="-7.86568" lon="111.80211000000001">
    <ele>2069.0</ele>
   </trkpt>
   <trkpt lat="-7.86563" lon="111.80273000000001">
    <ele>2073.3</ele>
   </trkpt>
   <trkpt lat="-7.8658600000000005" lon="111.80340000000001">
    <ele>2076.1800000000003</ele>
   </trkpt>
   <trkpt lat="-7.8657" lon="111.80412000000001">
    <ele>2077.36</ele>
   </trkpt>
   <trkpt lat="-7.86563" lon="111.80471000000001">
    <ele>2079.94</ele>
   </trkpt>
   <trkpt lat="-7.86535" lon="111.80528000000001">
    <ele>2083.88</ele>
   </trkpt>
   <trkpt lat="-7.865310000000001" lon="111.80617000000001">
    <ele>2088.98</ele>
   </trkpt>
   <trkpt lat="-7.865310000000001" lon="111.80618000000001">
    <ele>2088.98</ele>
   </trkpt>
   <trkpt lat="-7.8655100000000004" lon="111.80697">
    <ele>2082.77</ele>
   </trkpt>
   <trkpt lat="-7.8658050007886375" lon="111.80779999933547">
    <ele>2076.2</ele>
   </trkpt>
   <trkpt lat="-7.8661" lon="111.80863000000001">
    <ele>2064.86</ele>
   </trkpt>
   <trkpt lat="-7.86636" lon="111.80938">
    <ele>2053.8</ele>
   </trkpt>
   <trkpt lat="-7.8663300000000005" lon="111.80977000000001">
    <ele>2052.08</ele>
   </trkpt>
   <trkpt lat="-7.8662600000000005" lon="111.81">
    <ele>2051.2300000000005</ele>
   </trkpt>
   <trkpt lat="-7.86636" lon="111.81051000000001">
    <ele>2047.7000000000003</ele>
   </trkpt>
   <trkpt lat="-7.8666100000000005" lon="111.81080000000001">
    <ele>2045.83</ele>
   </trkpt>
   <trkpt lat="-7.86704" lon="111.81097000000001">
    <ele>2041.3700000000001</ele>
   </trkpt>
   <trkpt lat="-7.867520000018751" lon="111.8110999998492">
    <ele>2034.37</ele>
   </trkpt>
   <trkpt lat="-7.868" lon="111.81123000000001">
    <ele>2025.7500000000005</ele>
   </trkpt>
   <trkpt lat="-7.86826" lon="111.81141000000001">
    <ele>2022.4700000000003</ele>
   </trkpt>
   <trkpt lat="-7.86861" lon="111.81173000000001">
    <ele>2020.41</ele>
   </trkpt>
   <trkpt lat="-7.868845000237544" lon="111.8122149996408">
    <ele>2016.5700000000002</ele>
   </trkpt>
   <trkpt lat="-7.86908" lon="111.8127">
    <ele>2007.0800000000002</ele>
   </trkpt>
   <trkpt lat="-7.86915" lon="111.81277000000001">
    <ele>2005.1499999999999</ele>
   </trkpt>
   <trkpt lat="-7.86955" lon="111.81287">
    <ele>1995.0</ele>
   </trkpt>
   <trkpt lat="-7.870080000000001" lon="111.81333000000001">
    <ele>1961.9700000000003</ele>
   </trkpt>
   <trkpt lat="-7.87009" lon="111.81333000000001">
    <ele>1961.9700000000003</ele>
   </trkpt>
   <trkpt lat="-7.87023" lon="111.81325000000001">
    <ele>1952.0100000000002</ele>
   </trkpt>
   <trkpt lat="-7.8708050000455545" lon="111.81355499954263">
    <ele>1928.3600000000001</ele>
   </trkpt>
   <trkpt lat="-7.87138" lon="111.81386">
    <ele>1899.13</ele>
   </trkpt>
   <trkpt lat="-7.8717500000000005" lon="111.81402000000001">
    <ele>1877.0300000000002</ele>
   </trkpt>
   <trkpt lat="-7.87201" lon="111.81427000000001">
    <ele>1863.2400000000002</ele>
   </trkpt>
   <trkpt lat="-7.87253" lon="111.81421">
    <ele>1841.29</ele>
   </trkpt>
   <trkpt lat="-7.8727100000000005" lon="111.81438000000001">
    <ele>1822.27</ele>
   </trkpt>
   <trkpt lat="-7.87307" lon="111.81449">
    <ele>1810.6200000000001</ele>
   </trkpt>
   <trkpt lat="-7.87342" lon="111.81470000000002">
    <ele>1784.9800000000002</ele>
   </trkpt>
   <trkpt lat="-7.8737" lon="111.81502">
    <ele>1766.25</ele>
   </trkpt>
   <trkpt lat="-7.87396" lon="111.81508000000001">
    <ele>1750.1200000000001</ele>
   </trkpt>
   <trkpt lat="-7.87415" lon="111.81531000000001">
    <ele>1740.5800000000002</ele>
   </trkpt>
   <trkpt lat="-7.87429" lon="111.81539000000001">
    <ele>1732.9800000000002</ele>
   </trkpt>
   <trkpt lat="-7.8744700000000005" lon="111.81536000000001">
    <ele>1720.5800000000002</ele>
   </trkpt>
   <trkpt lat="-7.87471" lon="111.81514000000001">
    <ele>1698.53</ele>
   </trkpt>
   <trkpt lat="-7.87492" lon="111.81503000000001">
    <ele>1678.2</ele>
   </trkpt>
   <trkpt lat="-7.87518" lon="111.81504000000001">
    <ele>1656.1000000000001</ele>
   </trkpt>
   <trkpt lat="-7.87553" lon="111.81516">
    <ele>1644.7500000000002</ele>
   </trkpt>
   <trkpt lat="-7.8759500000000005" lon="111.81524">
    <ele>1621.5000000000002</ele>
   </trkpt>
   <trkpt lat="-7.8762300000000005" lon="111.81524">
    <ele>1612.5500000000002</ele>
   </trkpt>
   <trkpt lat="-7.87633" lon="111.81514000000001">
    <ele>1607.1000000000001</ele>
   </trkpt>
   <trkpt lat="-7.87689" lon="111.81535000000001">
    <ele>1579.8</ele>
   </trkpt>
   <trkpt lat="-7.877210000000001" lon="111.81551">
    <ele>1565.0000000000002</ele>
   </trkpt>
   <trkpt lat="-7.87783" lon="111.8156">
    <ele>1551.9900000000002</ele>
   </trkpt>
   <trkpt lat="-7.8781300000000005" lon="111.81556">
    <ele>1549.2800000000002</ele>
   </trkpt>
   <trkpt lat="-7.8787400000000005" lon="111.81555000000002">
    <ele>1538.68</ele>
   </trkpt>
   <trkpt lat="-7.87935000010953" lon="111.8156499998687">
    <ele>1521.97</ele>
   </trkpt>
   <trkpt lat="-7.8799600000000005" lon="111.81575000000001">
    <ele>1502.8100000000002</ele>
   </trkpt>
   <trkpt lat="-7.88053" lon="111.81578">
    <ele>1484.17</ele>
   </trkpt>
   <trkpt lat="-7.88114" lon="111.81577000000001">
    <ele>1465.66</ele>
   </trkpt>
   <trkpt lat="-7.88149" lon="111.81584000000001">
    <ele>1455.96</ele>
   </trkpt>
   <trkpt lat="-7.88161" lon="111.81595000000002">
    <ele>1449.57</ele>
   </trkpt>
   <trkpt lat="-7.882000000000001" lon="111.81590000000001">
    <ele>1432.46</ele>
   </trkpt>
   <trkpt lat="-7.8823300000000005" lon="111.81611000000001">
    <ele>1422.4800000000002</ele>
   </trkpt>
   <trkpt lat="-7.88271" lon="111.81625000000001">
    <ele>1416.9600000000003</ele>
   </trkpt>
   <trkpt lat="-7.8831500000000005" lon="111.81628">
    <ele>1411.93</ele>
   </trkpt>
   <trkpt lat="-7.88339" lon="111.81640000000002">
    <ele>1409.24</ele>
   </trkpt>
   <trkpt lat="-7.88367" lon="111.81634000000001">
    <ele>1408.29</ele>
   </trkpt>
   <trkpt lat="-7.88388" lon="111.81639000000001">
    <ele>1408.6200000000001</ele>
   </trkpt>
   <trkpt lat="-7.88405" lon="111.8165">
    <ele>1408.3500000000001</ele>
   </trkpt>
   <trkpt lat="-7.88426" lon="111.81642000000001">
    <ele>1405.4</ele>
   </trkpt>
   <trkpt lat="-7.88466" lon="111.8165">
    <ele>1403.0300000000002</ele>
   </trkpt>
   <trkpt lat="-7.88489" lon="111.8165">
    <ele>1403.0600000000002</ele>
   </trkpt>
   <trkpt lat="-7.885050000000001" lon="111.81657000000001">
    <ele>1403.14</ele>
   </trkpt>
   <trkpt lat="-7.8851" lon="111.81664">
    <ele>1402.92</ele>
   </trkpt>
   <trkpt lat="-7.88522" lon="111.81658000000002">
    <ele>1401.78</ele>
   </trkpt>
   <trkpt lat="-7.88536" lon="111.81628">
    <ele>1393.43</ele>
   </trkpt>
   <trkpt lat="-7.885400000000001" lon="111.81599000000001">
    <ele>1385.0</ele>
   </trkpt>
   <trkpt lat="-7.88557" lon="111.81591">
    <ele>1375.38</ele>
   </trkpt>
   <trkpt lat="-7.8858500000000005" lon="111.81587">
    <ele>1365.85</ele>
   </trkpt>
   <trkpt lat="-7.8860600000000005" lon="111.81571000000001">
    <ele>1357.31</ele>
   </trkpt>
   <trkpt lat="-7.886340000000001" lon="111.81562000000001">
    <ele>1350.3400000000001</ele>
   </trkpt>
   <trkpt lat="-7.88651" lon="111.81548000000001">
    <ele>1344.03</ele>
   </trkpt>
   <trkpt lat="-7.88677" lon="111.81552">
    <ele>1333.79</ele>
   </trkpt>
   <trkpt lat="-7.88712" lon="111.81531000000001">
    <ele>1321.97</ele>
   </trkpt>
   <trkpt lat="-7.88731" lon="111.81532000000001">
    <ele>1314.71</ele>
   </trkpt>
   <trkpt lat="-7.88738" lon="111.81509000000001">
    <ele>1305.71</ele>
   </trkpt>
   <trkpt lat="-7.88764" lon="111.81502">
    <ele>1293.9900000000002</ele>
   </trkpt>
   <trkpt lat="-7.8878200000000005" lon="111.81475">
    <ele>1278.2900000000002</ele>
   </trkpt>
   <trkpt lat="-7.88801" lon="111.81452000000002">
    <ele>1264.13</ele>
   </trkpt>
   <trkpt lat="-7.888580000000001" lon="111.81414000000001">
    <ele>1234.0000000000002</ele>
   </trkpt>
   <trkpt lat="-7.88862" lon="111.81457">
    <ele>1227.43</ele>
   </trkpt>
   <trkpt lat="-7.88869" lon="111.81486000000001">
    <ele>1222.7400000000002</ele>
   </trkpt>
   <trkpt lat="-7.88909" lon="111.81531000000001">
    <ele>1207.4</ele>
   </trkpt>
   <trkpt lat="-7.88942" lon="111.81542">
    <ele>1198.59</ele>
   </trkpt>
   <trkpt lat="-7.88963" lon="111.81539000000001">
    <ele>1195.64</ele>
   </trkpt>
   <trkpt lat="-7.8898600000000005" lon="111.81539000000001">
    <ele>1190.0600000000002</ele>
   </trkpt>
   <trkpt lat="-7.890290000368701" lon="111.8156049999333">
    <ele>1176.8700000000001</ele>
   </trkpt>
   <trkpt lat="-7.890720000000001" lon="111.81582">
    <ele>1163.99</ele>
   </trkpt>
   <trkpt lat="-7.89106" lon="111.81591">
    <ele>1159.93</ele>
   </trkpt>
   <trkpt lat="-7.8913400000000005" lon="111.8161">
    <ele>1154.3700000000001</ele>
   </trkpt>
   <trkpt lat="-7.89174" lon="111.81631000000002">
    <ele>1151.17</ele>
   </trkpt>
   <trkpt lat="-7.89219" lon="111.81661000000001">
    <ele>1154.35</ele>
   </trkpt>
   <trkpt lat="-7.89252" lon="111.81679000000001">
    <ele>1154.8</ele>
   </trkpt>
   <trkpt lat="-7.89308" lon="111.81693000000001">
    <ele>1150.02</ele>
   </trkpt>
   <trkpt lat="-7.89341" lon="111.81703">
    <ele>1145.1</ele>
   </trkpt>
   <trkpt lat="-7.8938500000000005" lon="111.81724000000001">
    <ele>1142.5200000000002</ele>
   </trkpt>
   <trkpt lat="-7.89411" lon="111.81743000000002">
    <ele>1142.8700000000001</ele>
   </trkpt>
   <trkpt lat="-7.8943" lon="111.81764000000001">
    <ele>1143.07</ele>
   </trkpt>
   <trkpt lat="-7.89458" lon="111.81784">
    <ele>1141.37</ele>
   </trkpt>
   <trkpt lat="-7.894950000000001" lon="111.81824">
    <ele>1133.45</ele>
   </trkpt>
   <trkpt lat="-7.89531" lon="111.81866000000001">
    <ele>1124.97</ele>
   </trkpt>
   <trkpt lat="-7.89573" lon="111.81906000000001">
    <ele>1114.3500000000001</ele>
   </trkpt>
   <trkpt lat="-7.89592" lon="111.81908000000001">
    <ele>1113.0500000000002</ele>
   </trkpt>
   <trkpt lat="-7.89667" lon="111.81933000000001">
    <ele>1099.67</ele>
   </trkpt>
   <trkpt lat="-7.89695" lon="111.81957000000001">
    <ele>1096.84</ele>
   </trkpt>
   <trkpt lat="-7.89723" lon="111.81974000000001">
    <ele>1096.06</ele>
   </trkpt>
   <trkpt lat="-7.89747" lon="111.81979000000001">
    <ele>1096.0400000000002</ele>
   </trkpt>
   <trkpt lat="-7.89796" lon="111.81979000000001">
    <ele>1091.68</ele>
   </trkpt>
   <trkpt lat="-7.898440000000001" lon="111.81996000000001">
    <ele>1085.0000000000002</ele>
   </trkpt>
   <trkpt lat="-7.8989400000000005" lon="111.82011000000001">
    <ele>1081.0600000000002</ele>
   </trkpt>
   <trkpt lat="-7.89904" lon="111.82029000000001">
    <ele>1077.91</ele>
   </trkpt>
   <trkpt lat="-7.89925" lon="111.82043000000002">
    <ele>1069.86</ele>
   </trkpt>
   <trkpt lat="-7.89944" lon="111.82047000000001">
    <ele>1064.01</ele>
   </trkpt>
   <trkpt lat="-7.8996900000000005" lon="111.82056000000001">
    <ele>1057.7500000000002</ele>
   </trkpt>
   <trkpt lat="-7.90019" lon="111.8207">
    <ele>1045.76</ele>
   </trkpt>
   <trkpt lat="-7.900440000000001" lon="111.82082000000001">
    <ele>1042.96</ele>
   </trkpt>
   <trkpt lat="-7.90075" lon="111.82089">
    <ele>1038.34</ele>
   </trkpt>
   <trkpt lat="-7.90096" lon="111.82085000000001">
    <ele>1033.42</ele>
   </trkpt>
   <trkpt lat="-7.90103" lon="111.82108000000001">
    <ele>1024.0</ele>
   </trkpt>
   <trkpt lat="-7.9011000000000005" lon="111.82113000000001">
    <ele>1024.0</ele>
   </trkpt>
   <trkpt lat="-7.90174" lon="111.82135000000001">
    <ele>1000.6600000000001</ele>
   </trkpt>
   <trkpt lat="-7.9020600000000005" lon="111.82139000000001">
    <ele>987.9200000000001</ele>
   </trkpt>
   <trkpt lat="-7.9026000000000005" lon="111.82159000000001">
    <ele>963.69</ele>
   </trkpt>
   <trkpt lat="-7.902940000000001" lon="111.82177000000001">
    <ele>953.0</ele>
   </trkpt>
   <trkpt lat="-7.90305" lon="111.82186000000002">
    <ele>949.5300000000001</ele>
   </trkpt>
   <trkpt lat="-7.90324" lon="111.82208000000001">
    <ele>948.35</ele>
   </trkpt>
   <trkpt lat="-7.90357" lon="111.82232">
    <ele>945.15</ele>
   </trkpt>
   <trkpt lat="-7.9038900000000005" lon="111.82252000000001">
    <ele>943.95</ele>
   </trkpt>
   <trkpt lat="-7.90408" lon="111.82269000000001">
    <ele>943.2800000000001</ele>
   </trkpt>
   <trkpt lat="-7.90418" lon="111.8229">
    <ele>941.7900000000001</ele>
   </trkpt>
   <trkpt lat="-7.9045700000000005" lon="111.82312">
    <ele>936.88</ele>
   </trkpt>
   <trkpt lat="-7.90474" lon="111.82316000000002">
    <ele>935.8400000000001</ele>
   </trkpt>
   <trkpt lat="-7.90521" lon="111.82309000000001">
    <ele>938.6700000000001</ele>
   </trkpt>
   <trkpt lat="-7.9053700000000005" lon="111.82317">
    <ele>938.98</ele>
   </trkpt>
   <trkpt lat="-7.90556" lon="111.82322">
    <ele>938.2</ele>
   </trkpt>
   <trkpt lat="-7.90591" lon="111.82318000000001">
    <ele>938.44</ele>
   </trkpt>
   <trkpt lat="-7.90624" lon="111.82322">
    <ele>939.6700000000001</ele>
   </trkpt>
   <trkpt lat="-7.906540000000001" lon="111.82319000000001">
    <ele>940.15</ele>
   </trkpt>
   <trkpt lat="-7.9069" lon="111.82319000000001">
    <ele>939.2900000000001</ele>
   </trkpt>
   <trkpt lat="-7.90718" lon="111.82328000000001">
    <ele>937.1100000000001</ele>
   </trkpt>
   <trkpt lat="-7.90746" lon="111.82346000000001">
    <ele>934.27</ele>
   </trkpt>
   <trkpt lat="-7.90767" lon="111.82353">
    <ele>933.9600000000002</ele>
   </trkpt>
   <trkpt lat="-7.908" lon="111.82355000000001">
    <ele>930.97</ele>
   </trkpt>
   <trkpt lat="-7.90873" lon="111.82346000000001">
    <ele>920.82</ele>
   </trkpt>
   <trkpt lat="-7.909050000000001" lon="111.82345000000001">
    <ele>918.0400000000001</ele>
   </trkpt>
   <trkpt lat="-7.9093800000000005" lon="111.82359000000001">
    <ele>912.7600000000001</ele>
   </trkpt>
   <trkpt lat="-7.909590000000001" lon="111.8238">
    <ele>909.6800000000001</ele>
   </trkpt>
   <trkpt lat="-7.9096400000000004" lon="111.82402">
    <ele>908.1500000000001</ele>
   </trkpt>
   <trkpt lat="-7.90955" lon="111.82416">
    <ele>906.46</ele>
   </trkpt>
   <trkpt lat="-7.909090000000001" lon="111.82441000000001">
    <ele>897.0</ele>
   </trkpt>
   <trkpt lat="-7.90901" lon="111.82455">
    <ele>891.6</ele>
   </trkpt>
   <trkpt lat="-7.90901" lon="111.82496">
    <ele>886.6400000000001</ele>
   </trkpt>
   <trkpt lat="-7.90913" lon="111.82542000000001">
    <ele>877.45</ele>
   </trkpt>
   <trkpt lat="-7.90929" lon="111.82543000000001">
    <ele>875.86</ele>
   </trkpt>
   <trkpt lat="-7.90943" lon="111.82536">
    <ele>872.8500000000001</ele>
   </trkpt>
   <trkpt lat="-7.90957" lon="111.82526000000001">
    <ele>869.5100000000001</ele>
   </trkpt>
   <trkpt lat="-7.90981" lon="111.82521000000001">
    <ele>865.92</ele>
   </trkpt>
   <trkpt lat="-7.91049" lon="111.82520000000001">
    <ele>854.08</ele>
   </trkpt>
   <trkpt lat="-7.9109300000000005" lon="111.82516000000001">
    <ele>845.8000000000001</ele>
   </trkpt>
   <trkpt lat="-7.9113500000000005" lon="111.82533000000001">
    <ele>840.6</ele>
   </trkpt>
   <trkpt lat="-7.91152" lon="111.82532">
    <ele>838.58</ele>
   </trkpt>
   <trkpt lat="-7.91173" lon="111.82537">
    <ele>836.3800000000001</ele>
   </trkpt>
   <trkpt lat="-7.91194" lon="111.82547000000001">
    <ele>833.8100000000001</ele>
   </trkpt>
   <trkpt lat="-7.9121500000000005" lon="111.82570000000001">
    <ele>828.73</ele>
   </trkpt>
   <trkpt lat="-7.91239" lon="111.82581">
    <ele>824.03</ele>
   </trkpt>
   <trkpt lat="-7.9126" lon="111.82587000000001">
    <ele>821.69</ele>
   </trkpt>
   <trkpt lat="-7.91279" lon="111.82581">
    <ele>816.2600000000001</ele>
   </trkpt>
   <trkpt lat="-7.91295" lon="111.82578000000001">
    <ele>814.07</ele>
   </trkpt>
   <trkpt lat="-7.91356" lon="111.82591000000001">
    <ele>806.64</ele>
   </trkpt>
   <trkpt lat="-7.91368" lon="111.82603">
    <ele>802.95</ele>
   </trkpt>
   <trkpt lat="-7.91384" lon="111.82606000000001">
    <ele>799.71</ele>
   </trkpt>
   <trkpt lat="-7.914300000000001" lon="111.82619000000001">
    <ele>795.0200000000001</ele>
   </trkpt>
   <trkpt lat="-7.914924999868164" lon="111.82638999963928">
    <ele>796.48</ele>
   </trkpt>
   <trkpt lat="-7.9155500000000005" lon="111.82659000000001">
    <ele>797.64</ele>
   </trkpt>
  </trkseg>
 </trk>
</gpx>
